satname,norad_id,inclination_deg,eccentricity,mean_motion_rev_per_day,perigee_km,apogee_km,l1,l2
STARLINK-1316,45415,53.1566,0.0006656,15.37372055,449.33650728493194,458.4312935075395,1 45415U 20019BH  26147.90785031  .00054576  00000+0  14674-2 0  9994,2 45415  53.1566 119.2751 0006656  38.5120 321.6357 15.37372055342155
STARLINK-1286,45417,53.0452,0.0001183,15.62615952,379.30446264656075,380.90346245830096,1 45417U 20019BK  26147.16743860  .00066581  00000+0  73093-3 0  9998,2 45417  53.0452 111.5212 0001183 120.4915 239.6216 15.62615952342437
STARLINK-1308,45419,53.0446,0.0008147,15.64579836,368.9460848597673,379.9487459061929,1 45419U 20019BM  26147.65467182  .00074679  00000+0  75652-3 0  9994,2 45419  53.0446 128.6909 0008147  11.7631 348.3572 15.64579836341982
STARLINK-1329,45531,53.0427,0.0004453,15.71547366,351.4760038496379,357.4720672378926,1 45531U 20025A   26147.88785996  .00073707  00000+0  56272-3 0  9995,2 45531  53.0427  51.8492 0004453 101.7416 258.4101 15.71547366337869
STARLINK-1338,45532,53.0452,0.0004287,15.66585306,365.7909259077487,371.5756496224785,1 45532U 20025B   26147.94048188  .00055152  00000+0  51891-3 0  9994,2 45532  53.0452  57.8137 0004287  72.6958 287.4526 15.66585306337786
STARLINK-1350,45535,53.0733,0.0001613,15.3796614,451.0226855808987,453.22612791071606,1 45535U 20025E   26147.92145764  .00013756  00000+0  37269-3 0  9990,2 45535  53.0733  20.4855 0001613  81.1089 279.0096 15.37966140338343
STARLINK-1362,45538,53.1567,0.000471,15.35850727,455.1747617992478,461.61477472495153,1 45538U 20025H   26147.87534378 -.00125229  00000+0 -35849-2 0  9992,2 45538  53.1567  91.6880 0004710 100.7331 259.4203 15.35850727337329
STARLINK-1368,45540,53.1588,0.0004925,15.36169626,454.08206274265467,460.8151145474694,1 45540U 20025K   26147.88894737  .00054274  00000+0  15174-2 0  9992,2 45540  53.1588  91.9934 0004925  82.0800 278.0762 15.36169626337317
STARLINK-1371,45542,53.0443,0.0005994,15.59870079,383.97711371526566,392.08839801859904,1 45542U 20025M   26147.93295999  .00097211  00000+0  11780-2 0  9992,2 45542  53.0443  67.0414 0005994  84.9190 275.2507 15.59870079337654
STARLINK-1372,45543,53.1566,0.0004194,15.36626569,453.227123990383,458.9596764500866,1 45543U 20025N   26147.26588015  .00059046  00000+0  16250-2 0  9994,2 45543  53.1566  94.4569 0004194  70.4184 289.7272 15.36626569336321
STARLINK-1373,45544,53.0461,0.0003926,15.6835221,360.9682167353394,366.26184042818204,1 45544U 20025P   26147.90822333  .00063208  00000+0  55238-3 0  9995,2 45544  53.0461  63.3637 0003926  51.6071 308.5297 15.68352210337708
STARLINK-1327,45555,53.0427,0.0004905,15.65955505,367.1819357981467,373.80234098290657,1 45555U 20025AA  26147.93312416  .00054750  00000+0  52831-3 0  9994,2 45555  53.0427  40.2076 0004905  54.2783 305.8688 15.65955505338023
STARLINK-1356,45564,53.0465,0.0003267,15.5619581,396.4647976563283,400.8927690891851,1 45564U 20025AK  26147.93162356  .00037907  00000+0  53564-3 0  9999,2 45564  53.0465  53.1049 0003267  64.2528 295.8820 15.56195810337846
STARLINK-1357,45565,53.0471,0.0007005,15.67999335,359.90316304970474,369.3497746695775,1 45565U 20025AL  26147.87526729  .00064556  00000+0  57167-3 0  9994,2 45565  53.0471  10.5475 0007005  89.9847 270.1971 15.67999335338442
STARLINK-1361,45567,53.0444,0.0001044,15.60239621,386.2580610848827,387.67061424418625,1 45567U 20025AN  26147.97851402  .00095085  00000+0  11373-2 0  9995,2 45567  53.0444  51.0220 0001044  90.5643 269.5489 15.60239621337882
STARLINK-1363,45568,53.0274,0.0009153,16.15303817,226.28278876893182,238.38391579582003,1 45568U 20025AP  26147.93515459  .01056973  75672-3  76274-3 0  9998,2 45568  53.0274 353.7569 0009153 268.1801  91.8186 16.15303817338667
STARLINK-1366,45569,53.0326,0.0005715,16.04806123,257.3355354703908,264.924217510219,1 45569U 20025AQ  26147.85510487  .00504929  13038-3  72677-3 0  9995,2 45569  53.0326 356.8124 0005715 274.3839  85.6539 16.04806123338611
STARLINK-1376,45570,53.1582,0.0005444,15.36983494,451.3153304304524,458.75528844096516,1 45570U 20025AR  26147.18025377  .00056303  00000+0  15326-2 0  9998,2 45570  53.1582  71.2880 0005444  72.6092 287.5507 15.36983494337544
STARLINK-1320,45572,53.0423,0.0005595,15.83232759,317.55714757694113,325.05382371838095,1 45572U 20025AT  26148.00002315  .00170381  00000+0  76074-3 0  9990,2 45572  53.0423 310.2604 0005595 290.8485 272.2583 15.83232759  6019
STARLINK-1321,45573,53.044,0.0004388,15.61158729,381.3414834636842,387.2762059369925,1 45573U 20025AU  26147.93071644  .00098074  00000+0  11315-2 0  9997,2 45573  53.0440  35.2310 0004388  93.8786 266.2728 15.61158729337797
STARLINK-1331,45578,53.0474,0.0005147,15.61023517,381.2185047675248,388.18016849245214,1 45578U 20025AZ  26147.95275494  .00091052  00000+0  10571-2 0  9995,2 45578  53.0474  42.0043 0005147  71.5788 288.5784 15.61023517338018
STARLINK-1333,45580,53.1578,0.0003191,15.34048981,461.5634964812134,465.92998668509154,1 45580U 20025BB  26147.92167789  .00045485  00000+0  13641-2 0  9992,2 45580  53.1578  69.0846 0003191  98.4064 261.7301 15.34048981337647
STARLINK-1335,45581,53.1561,0.0004393,15.35538004,456.3192454524351,462.3266377571299,1 45581U 20025BC  26147.76751688  .00056112  00000+0  16002-2 0  9995,2 45581  53.1561  66.6570 0004393  89.9003 270.2503 15.35538004337651
STARLINK-1337,45582,53.0476,0.0006476,15.72556599,347.2349907902899,355.95133729876034,1 45582U 20025BD  26147.95538200  .00079417  00000+0  57994-3 0  9999,2 45582  53.0476  32.2512 0006476  77.2199 282.9542 15.72556599338138
STARLINK-1347,45586,53.0395,0.0003972,15.67142624,364.4044243303142,369.76282759558035,1 45586U 20025BH  26147.90630708  .00060927  00000+0  55961-3 0  9992,2 45586  53.0395   2.5369 0003972 104.0317 256.1140 15.67142624338547
STARLINK-1364,45589,53.0435,0.0001799,15.680045,363.3986412782424,365.8246822467454,1 45589U 20025BL  26148.00002315 -.00027824  00000+0 -24206-3 0  9993,2 45589  53.0435  38.8315 0001799  99.4806 355.6443 15.68004500  5951
STARLINK-1365,45590,53.0467,0.0004661,15.57003769,393.176586773855,399.491748796464,1 45590U 20025BM  26147.77586187  .00090364  00000+0  12217-2 0  9997,2 45590  53.0467  73.2228 0004661  56.4538 303.6917 15.57003769337568
STARLINK-1443,45660,53.1336,0.0004021,15.31399241,468.8823948819572,474.3909828825572,1 45660U 20035D   26147.89809697  .00048180  00000+0  15687-2 0  9996,2 45660  53.1336  57.7258 0004021  68.3955 291.7474 15.31399241330874
STARLINK-1446,45663,53.0232,0.0003695,15.46739011,423.75889099581764,428.78735007489286,1 45663U 20035G   26147.80716691  .00039230  00000+0  77593-3 0  9992,2 45663  53.0232 342.4839 0003695 139.1609 220.9674 15.46739011331909
STARLINK-1448,45665,53.0454,0.000623,15.66778144,363.9267561982888,372.33260448199326,1 45665U 20035J   26147.93923533  .00064407  00000+0  59946-3 0  9999,2 45665  53.0454  26.3983 0006230  72.4430 287.7266 15.66778144331296
STARLINK-1451,45668,53.0535,0.0002893,15.13605472,523.2183380205888,527.2126177642967,1 45668U 20035M   26147.93600917  .00025177  00000+0  13977-2 0  9994,2 45668  53.0535  67.2073 0002893  81.7768 278.3553 15.13605472330739
STARLINK-1452,45669,53.0271,0.0001321,15.56529352,396.8155427927786,398.6057217372236,1 45669U 20035N   26147.81575637  .00096032  00000+0  13204-2 0  9993,2 45669  53.0271   1.3577 0001321 256.4717 103.6147 15.56529352331644
STARLINK-1453,45670,53.0409,0.0001966,15.67087786,365.9148433112723,368.56712593482644,1 45670U 20035P   26147.90983770  .00072243  00000+0  66331-3 0  9994,2 45670  53.0409 346.8703 0001966 165.8841 194.2230 15.67087786331745
STARLINK-1454,45671,53.0448,0.0002709,15.65306958,370.52738838985715,374.1848055497958,1 45671U 20035Q   26147.93337131  .00060697  00000+0  60023-3 0  9994,2 45671  53.0448  27.5353 0002709  51.0502 309.0753 15.65306958331276
STARLINK-1456,45673,53.0436,0.0005303,15.64042292,372.41280310534694,379.57623499445253,1 45673U 20035S   26147.89352682  .00115752  00000+0  11898-2 0  9997,2 45673  53.0436  22.2267 0005303 114.5414 245.6153 15.64042292331367
STARLINK-1458,45675,53.0478,0.000412,15.54719364,400.1747108175032,405.7623417711693,1 45675U 20035U   26147.91787592  .00093618  00000+0  13763-2 0  9993,2 45675  53.0478  35.9829 0004120  67.8064 292.3383 15.54719364331136
STARLINK-1460,45676,53.1583,0.0004074,15.33915176,461.3570733089964,466.9321643720277,1 45676U 20035V   26147.89595965  .00045207  00000+0  13615-2 0  9999,2 45676  53.1583  56.3800 0004074 111.8442 248.2994 15.33915176330851
STARLINK-1392,45677,53.1546,0.0003188,15.37082544,452.56343026623654,456.9200737585197,1 45677U 20035W   26147.93701302  .00054692  00000+0  14850-2 0  9999,2 45677  53.1546  55.0781 0003188 111.9361 248.1982 15.37082544330912
STARLINK-1394,45679,53.0421,0.0006036,15.63619719,373.13381908384963,381.2888756087659,1 45679U 20035Y   26147.89428273  .00108121  00000+0  11312-2 0  9996,2 45679  53.0421  12.4811 0006036 121.0105 239.1502 15.63619719331490
STARLINK-1402,45685,53.0413,0.0005472,15.56585406,393.840307016696,401.2556166389195,1 45685U 20035AE  26147.84899327  .00062089  00000+0  85756-3 0  9996,2 45685  53.0413   2.9303 0005472 142.0506 218.0891 15.56585406331639
STARLINK-1404,45686,53.1581,0.0004673,15.4305198,433.923200278432,440.2927282220189,1 45686U 20035AF  26147.90923839  .00060657  00000+0  13510-2 0  9997,2 45686  53.1581  37.3249 0004673 126.0750 234.0690 15.43051980331167
STARLINK-1413,45689,53.1584,0.0002866,15.33897065,462.23746409087016,466.1594907865383,1 45689U 20035AJ  26147.93464342  .00043660  00000+0  13165-2 0  9993,2 45689  53.1584  40.8430 0002866 124.8131 235.3142 15.33897065331038
STARLINK-1417,45693,53.0496,0.0006008,15.16168868,513.2893987585685,521.5751147775009,1 45693U 20035AN  26147.92181765  .00029545  00000+0  15219-2 0  9990,2 45693  53.0496  54.1358 0006008 103.0291 257.1373 15.16168868330905
